439P/LINEAR,e,7.1113,56.4379,342.1080,3.492023,0.1510388,0.46898763,226.5062,10/04.0/2025,2000,g 13.5,4.0
# From MPEC 2024-N80
440P/Kobayashi,e,12.3533,328.7961,183.3074,8.580245,0.0392152,0.76095144,50.3309,10/04.0/2025,2000,g 15.5,4.0
# From MPEC 2025-SH3
441P/PANSTARRS,e,2.5745,143.5861,178.8612,4.131554,0.1173637,0.19450939,2.8929,10/04.0/2025,2000,g 13.5,4.0
# From MPEC 2024-N80
442P/McNaught,e,6.0578,31.9213,310.6223,4.952635,0.0894231,0.53261633,102.2632,10/04.0/2025,2000,g 13.5,4.0
# From MPEC 2024-TD8
443P/PANSTARRS-Christensen,e,19.8880,108.9333,145.0531,4.124460,0.1176667,0.28284975,128.3577,10/04.0/2025,2000,g 13.5,4.0
# From MPEC 2023-VM5
444P/WISE-PANSTARRS,e,22.7063,88.1931,172.8260,3.476974,0.1520204,0.55580173,181.5504,10/04.0/2025,2000,g 17.0,4.0
# From MPEC 2025-R69
445P/Lemmon-PANSTARRS,e,1.0891,126.5937,213.1334,4.045010,0.1211503,0.41434140,138.7186,10/04.0/2025,2000,g 15.0,4.0
# From MPEC 2024-NE4
446P/McNaught,e,16.6369,336.3180,344.6110,4.558527,0.1012669,0.64685273,124.0093,10/04.0/2025,2000,g 16.5,4.0
# From MPEC 2022-YB4
447P/Sheppard-Tholen,e,7.4415,302.6379,97.4401,5.624334,0.0738920,0.17708756,84.6480,10/04.0/2025,2000,g 12.0,4.0
# From MPEC 2024-PC5
448P/PANSTARRS,e,12.1437,161.7513,218.8063,3.636733,0.1421140,0.41801890,159.7389,10/04.0/2025,2000,g 16.0,4.0
# From MPEC 2024-DC6
449P/Leonard,e,15.4692,242.5202,176.7756,3.599659,0.1443152,0.47973737,255.9201,10/04.0/2025,2000,g 16.0,4.0
# From MPEC 2025-ST8
450P/LONEOS,e,10.7829,124.0515,24.8338,7.904373,0.0443510,0.31378747,337.9557,10/04.0/2025,2000,g  6.5,4.0
# From MPEC 2023-HD1
451P/Christensen,e,26.4866,300.8639,186.8088,6.351258,0.0615764,0.55928453,64.0965,10/04.0/2025,2000,g 13.5,4.0
# From MPEC 2024-NE4
452P/Sheppard-Jewitt,e,6.4222,123.6621,37.1108,7.312593,0.0498422,0.42868559,44.4525,10/04.0/2025,2000,g  9.0,4.0
# From MPEC 2023-RF3
453P/WISE-Lemmon,e,27.0566,42.8890,70.9124,5.468208,0.0770791,0.58317678,72.8829,10/04.0/2025,2000,g 14.0,4.0
# From MPEC 2023-CD7
454P/PANSTARRS,e,19.8078,54.5865,20.2138,4.211949,0.1140196,0.36135181,132.8670,10/04.0/2025,2000,g 14.0,4.0
# From MPEC 2022-Y14
455P/PANSTARRS,e,14.1341,146.1772,237.5398,3.153643,0.1759889,0.30432715,167.5760,10/04.0/2025,2000,g 17.0,4.0
# From MPC182892
456P/PANSTARRS,e,16.9649,243.1392,232.9821,3.168901,0.1747193,0.11571050,30.0880,10/04.0/2025,2000,g 13.5,4.0
# From MPEC 2025-A40
457P/Lemmon-PANSTARRS,e,5.2258,175.9638,104.2980,2.645029,0.2291176,0.11833508,93.9419,10/04.0/2025,2000,g 15.5,4.0
# From MPEC 2023-HD1
458P/Jahn,e,13.6218,1.5530,104.9573,3.859441,0.1299923,0.31726567,138.9733,10/04.0/2025,2000,g 14.0,4.0
# From MPEC 2024-N80
459P/Catalina,e,7.1734,256.9870,205.2321,3.240458,0.1689641,0.57787887,161.3983,10/04.0/2025,2000,g 15.5,4.0
# From MPEC 2023-G14
460P/PANSTARRS,e,18.9004,180.5175,351.9319,3.027434,0.1871079,0.66426874,294.0236,10/04.0/2025,2000,g 21.0,4.0
# From MPEC 2024-GJ3
461P/WISE,e,18.3968,194.3745,174.8288,3.144562,0.1767518,0.56948373,258.1742,10/04.0/2025,2000,g 18.5,4.0
# From MPEC 2024-BE0
462P/LONEOS-PANSTARRS,e,7.0529,322.6406,4.1775,4.859301,0.0920118,0.57865228,106.7457,10/04.0/2025,2000,g 17.0,4.0
# From MPEC 2024-GJ3
463P/NEOWISE,e,29.2965,283.2186,216.3413,2.974035,0.1921698,0.82595801,176.6143,10/04.0/2025,2000,g 18.0,4.0
# From MPEC 2024-Q20
464P/PANSTARRS,e,21.6740,309.5790,267.4989,4.683354,0.0972453,0.28065945,92.3565,10/04.0/2025,2000,g 10.5,4.0
# From MPEC 2024-NE4
465P/Hill,e,25.8617,217.9413,140.9724,6.005549,0.0669692,0.61304196,58.8815,10/04.0/2025,2000,g 12.5,4.0
# From MPEC 2024-JU4
466P/PANSTARRS,e,13.9825,116.5952,198.1679,3.998823,0.1232554,0.48789064,107.5571,10/04.0/2025,2000,g 14.0,4.0
# From MPEC 2025-A40
467P/LINEAR-Grauer,e,2.4794,43.2622,267.3258,5.825049,0.0701059,0.05433154,73.2258,10/04.0/2025,2000,g  9.0,4.0
# From MPEC 2024-O39
468P/SidingSpring,e,50.4540,356.1283,322.5665,7.115667,0.0519255,0.44482395,35.4658,10/04.0/2025,2000,g 11.5,4.0
# From MPEC 2025-A40
469P/PANSTARRS,e,20.1714,178.9664,43.4911,4.343152,0.1088921,0.30810455,352.8801,10/04.0/2025,2000,g 13.5,4.0
# From MPC182892
470P/PANSTARRS,e,8.8439,246.1636,151.6643,4.462581,0.1045502,0.38928987,68.7327,10/04.0/2025,2000,g 15.5,4.0
# From MPC182892
471P/LINEAR-Lemmon,e,4.7970,283.3126,94.7531,5.690345,0.0726100,0.62761821,47.5066,10/04.0/2025,2000,g 12.0,4.0
# From MPEC 2025-ST8
472P/NEAT-LINEAR,e,10.8254,205.8208,218.8172,7.769489,0.0455109,0.56409904,20.3504,10/04.0/2025,2000,g 10.5,4.0
# From MPEC 2024-MB8
473P/NEAT,e,56.8899,22.1910,42.9433,7.973542,0.0437751,0.82358880,25.6422,10/04.0/2025,2000,g 13.5,4.0
# From MPEC 2024-B74
474P/Hogan,e,1.0969,26.7513,11.2691,3.130739,0.1779237,0.18796480,144.3670,10/04.0/2025,2000,g 15.5,4.0
# From MPC185666
475P/Spacewatch-LINEAR,e,14.5239,147.3552,40.4169,7.319400,0.0497727,0.44294134,24.3532,10/04.0/2025,2000,g 11.0,4.0
# From MPC184421
476P/PANSTARRS,e,19.0053,57.0487,46.7397,4.774645,0.0944697,0.34580279,33.3019,10/04.0/2025,2000,g 12.5,4.0
# From MPEC 2024-GJ3
477P/PANSTARRS,e,8.9138,59.1416,305.8647,3.001705,0.1895187,0.41755813,122.7171,10/04.0/2025,2000,g 14.5,4.0
# From MPEC 2024-L77
478P/ATLAS,e,12.5250,127.2601,13.2587,3.648304,0.1414384,0.34379759,73.5158,10/04.0/2025,2000,g 13.5,4.0
# From MPEC 2024-PC5
479P/Elenin,e,15.3998,295.8328,263.4977,5.622617,0.0739258,0.77894893,38.1986,10/04.0/2025,2000,g 15.0,4.0
# From MPC182893
480P/PANSTARRS,e,13.7161,229.9832,214.4495,4.611486,0.0995274,0.24627626,88.9874,10/04.0/2025,2000,g 12.0,4.0
# From MPEC 2025-A40
481P/Lemmon-PANSTARRS,e,6.0827,93.5497,356.8291,4.682400,0.0972750,0.34344037,79.5338,10/04.0/2025,2000,g 13.5,4.0
# From MPEC 2024-JU4
482P/PANSTARRS,e,24.4885,126.0734,339.7386,3.757143,0.1353373,0.49236590,115.6828,10/04.0/2025,2000,g 13.5,4.0
# From MPC186638
483P-A/PANSTARRS,e,14.1758,199.0909,49.4229,3.195410,0.1725497,0.22184869,227.3424,10/04.0/2025,2000,g 13.5,4.0
# From MPC185666
483P-B/PANSTARRS,e,14.1766,199.0901,49.4137,3.195331,0.1725561,0.22179094,227.3781,10/04.0/2025,2000,g 17.0,4.0
# From MPEC 2024-DD5
484P/Spacewatch,e,14.4742,265.3746,240.8160,3.756504,0.1353718,0.43306217,239.7160,10/04.0/2025,2000,g 16.0,4.0
# From MPEC 2024-JU4
485P/Sheppard-Tholen,e,10.0161,261.6444,196.1253,6.852193,0.0549490,0.41719165,42.3463,10/04.0/2025,2000,g 13.0,4.0
# From MPEC 2025-T80
486P/Leonard,e,2.2096,219.0241,93.9399,3.627236,0.1426725,0.36343850,26.1334,10/04.0/2025,2000,g 14.5,4.0
# From MPEC 2025-ST8
487P/SidingSpring,e,39.3662,49.2008,0.8403,5.161097,0.0840603,0.64838102,29.2892,10/04.0/2025,2000,g 13.5,4.0
# From MPEC 2024-UA9
488P/NEAT-PANSTARRS,e,11.4025,323.7596,2.0329,3.747620,0.1358535,0.55149228,68.2082,10/04.0/2025,2000,g 16.5,4.0
# From MPEC 2024-Q14
489P/Denning,e,4.0259,20.6031,109.4182,4.425879,0.1058534,0.64722635,353.5101,10/04.0/2025,2000,g 15.5,4.0
# From MPEC 2024-YC7
490P/ATLAS,e,12.2669,307.5922,332.5699,3.030432,0.1868303,0.64704794,69.2876,10/04.0/2025,2000,g 21.0,4.0
# From MPEC 2025-T80
491P/Spacewatch-PANSTARRS,e,9.3668,311.6835,298.8563,5.012879,0.0878159,0.25867816,34.5249,10/04.0/2025,2000,g  9.5,4.0
# From MPC185666
492P/LINEAR,e,11.4011,11.3048,40.9817,5.758769,0.0713197,0.69055236,31.4221,10/04.0/2025,2000,g 15.0,4.0
# From MPEC 2025-T80
493P/LONEOS,e,24.1093,1.0955,83.2144,7.172559,0.0513089,0.46699854,354.7618,10/04.0/2025,2000,g 12.0,2.0
# From MPEC 2024-RQ6
494P/PANSTARRS,e,7.7899,245.0434,48.8837,3.794386,0.1333496,0.35673970,65.4794,10/04.0/2025,2000,g 16.0,4.0
# From MPEC 2025-T80
495P/Christensen,e,26.3559,291.6144,141.3347,4.759357,0.0949252,0.27304801,358.2605,10/04.0/2025,2000,g 11.5,4.0
# From MPEC 2025-ST8
496P/Hill,e,14.8144,63.5861,42.2483,6.098979,0.0654362,0.73420225,13.5926,10/04.0/2025,2000,g 14.0,4.0
# From MPC184421
497P/Spacewatch-PANSTARRS,e,10.4368,40.3633,32.3925,5.612167,0.0741324,0.63029461,17.1050,10/04.0/2025,2000,g 17.5,4.0
# From MPC184421
498P/LINEAR,e,14.4827,279.2299,179.0861,4.592838,0.1001342,0.57228102,28.9473,10/04.0/2025,2000,g 14.7,4.0
# From MPEC 2025-R69
499P/Catalina,e,24.5828,139.3059,2.5630,3.017909,0.1879944,0.69148470,40.1560,10/04.0/2025,2000,g 18.5,4.0
# From MPC185667
500P/PANSTARRS,e,2.3015,111.5269,46.6985,3.416041,0.1561059,0.37592134,29.0404,10/04.0/2025,2000,g 16.0,4.0
# From MPC182882
501P/Rankin,e,10.0473,139.7825,53.6874,2.227929,0.2963821,0.69851527,159.3602,10/04.0/2025,2000,g 21.5,4.0
# From MPEC 2025-T80
502P/NEAT,e,11.3995,264.4843,37.7325,7.996088,0.0435901,0.47105536,2.6147,10/04.0/2025,2000,g  8.5,4.0
# From MPC185667
503P/PANSTARRS,e,10.5748,268.5819,17.9460,3.658033,0.1408746,0.48131528,355.4138,10/04.0/2025,2000,g 15.0,4.0
# From MPC186639
504P/,e,8.8066,221.1201,308.5305,3.744663,0.1360144,0.40606207,24.2038,10/04.0/2025,2000,g 14.3,4.0
# From MPC184407
505P/Palomar,e,11.3882,111.9421,143.9575,4.112742,0.1181699,0.31065632,347.5120,10/04.0/2025,2000,g 14.9,4.0
# From MPC186639
506P/,e,13.6535,325.6360,354.5430,5.584425,0.0746855,0.48256126,57.4588,10/04.0/2025,2000,g 12.7,4.0
# From MPC184407
507P/Lemmon,e,17.0950,233.1607,107.7687,6.215263,0.0636084,0.56866156,66.0228,10/04.0/2025,2000,g 12.6,4.0
# From MPEC 2025-R69
508P/McNaught,e,31.7335,268.8302,338.8786,3.574943,0.1458144,0.56941979,12.3576,10/04.0/2025,2000,g 16.5,4.0
# From MPEC 2025-R69
509P/Catalina,e,8.6043,275.2073,180.1155,7.033632,0.0528366,0.47497686,351.1804,10/04.0/2025,2000,g 10.0,4.0
# From MPEC 2025-SH3
510P/Boattini,e,8.2277,280.6700,86.6837,6.483996,0.0596953,0.24812794,339.6914,10/04.0/2025,2000,g  9.5,4.0
# From MPC107687
1I/`Oumuamua,h,09/09.4886/2017,122.6778,24.5997,241.6845,1.199252,0.255240,2000,23.0,2.0
# From MPEC 2025-R69
2I/Borisov,h,12/09.0572/2019,44.2624,307.8024,209.2911,3.345952,1.997724,2000,11.0,4.0
# From MPEC 2025-T80
3I/ATLAS,h,10/29.4839/2025,175.1131,322.1574,128.0125,6.138574,1.356324,2000,11.8,4.0
